[{"OBJECT_NAME":"YUNHAI-2 02C","OBJECT_ID":"2024-052C","EPOCH":"2026-03-09T21:21:30.207744","MEAN_MOTION":14.27924657,"ECCENTRICITY":0.00066764,"INCLINATION":50.0079,"RA_OF_ASC_NODE":203.2069,"ARG_OF_PERICENTER":173.1854,"MEAN_ANOMALY":186.9153,"EPHEMERIS_TYPE":0,"CLASSIFICATION_TYPE":"U","NORAD_CAT_ID":59282,"ELEMENT_SET_NO":999,"REV_AT_EPOCH":10061,"BSTAR":0.00014036663,"MEAN_MOTION_DOT":1.89e-6,"MEAN_MOTION_DDOT":0},{"OBJECT_NAME":"CZ-6A DEB","OBJECT_ID":"2024-140QC","EPOCH":"2026-03-09T00:45:30.775680","MEAN_MOTION":14.10443597,"ECCENTRICITY":0.01129719,"INCLINATION":88.9828,"RA_OF_ASC_NODE":286.2657,"ARG_OF_PERICENTER":211.8843,"MEAN_ANOMALY":147.5472,"EPHEMERIS_TYPE":0,"CLASSIFICATION_TYPE":"U","NORAD_CAT_ID":61134,"ELEMENT_SET_NO":999,"REV_AT_EPOCH":7931,"BSTAR":0.0022554154,"MEAN_MOTION_DOT":4.268e-5,"MEAN_MOTION_DDOT":0}]
